{
    "links": {
        "self": "http://www.neowsapp.com/rest/v1/neo/3147556?api_key=iIulBulltgU6a56xZRHN4H3l9WmuAYTsLGpBGhQ2"
    },
    "id": "3147556",
    "neo_reference_id": "3147556",
    "name": "(2003 BS47)",
    "designation": "2003 BS47",
    "nasa_jpl_url": "http://ssd.jpl.nasa.gov/sbdb.cgi?sstr=3147556",
    "absolute_magnitude_h": 25.8,
    "estimated_diameter": {
        "kilometers": {
            "estimated_diameter_min": 0.0183888672,
            "estimated_diameter_max": 0.0411187571
        },
        "meters": {
            "estimated_diameter_min": 18.388867207,
            "estimated_diameter_max": 41.1187571041
        },
        "miles": {
            "estimated_diameter_min": 0.0114263088,
            "estimated_diameter_max": 0.0255500032
        },
        "feet": {
            "estimated_diameter_min": 60.3309310875,
            "estimated_diameter_max": 134.9040630575
        }
    },
    "is_potentially_hazardous_asteroid": false,
    "close_approach_data": [
        {
            "close_approach_date": "2003-01-29",
            "close_approach_date_full": "2003-Jan-29 16:06",
            "epoch_date_close_approach": 1043856360000,
            "relative_velocity": {
                "kilometers_per_second": "6.9984296094",
                "kilometers_per_hour": "25194.3465939958",
                "miles_per_hour": "15654.7871933637"
            },
            "miss_distance": {
                "astronomical": "0.0219631308",
                "lunar": "8.5436578812",
                "kilometers": "3285637.586211396",
                "miles": "2041600.5257974248"
            },
            "orbiting_body": "Earth"
        }
    ],
    "orbital_data": {
        "orbit_id": "6",
        "orbit_determination_date": "2017-04-06 09:14:22",
        "first_observation_date": "2003-01-31",
        "last_observation_date": "2003-02-02",
        "data_arc_in_days": 2,
        "observations_used": 12,
        "orbit_uncertainty": "9",
        "minimum_orbit_intersection": ".0213667",
        "jupiter_tisserand_invariant": "3.551",
        "epoch_osculation": "2452671.5",
        "eccentricity": ".5222466255285731",
        "semi_major_axis": "2.106729645786678",
        "inclination": "4.891937771163365",
        "ascending_node_longitude": "131.6742668087935",
        "orbital_period": "1116.893174407514",
        "perihelion_distance": "1.006497197373579",
        "perihelion_argument": "358.1359112583887",
        "aphelion_distance": "3.206962094199776",
        "perihelion_time": "2452669.461113207668",
        "mean_anomaly": ".6571794528414854",
        "mean_motion": ".3223226788819545",
        "equinox": "J2000",
        "orbit_class": {
            "orbit_class_type": "APO",
            "orbit_class_description": "Near-Earth asteroid orbits which cross the Earth’s orbit similar to that of 1862 Apollo",
            "orbit_class_range": "a (semi-major axis) > 1.0 AU; q (perihelion) < 1.017 AU"
        }
    },
    "is_sentry_object": false
}